name,source,collection_date,satellite_number,classification,launch_year,launch_number,launch_piece,epoch_year,epoch_day,inclination_deg,right_ascension_deg,eccentricity,argument_of_perigee_deg,mean_anomaly_deg,mean_motion,orbital_period_minutes,approximate_altitude_km,mean_motion_derivative,mean_motion_second_derivative,drag_term,element_set_number,revolution_number,line1,line2,category
STARLINK-3917,celestrak_active,2025-07-29T17:08:40.674963,52588,U,2022,51,BE,2025,210.22804753,53.2174,42.2803,0.0001312,81.0843,279.0297,15.08847848,95.43705827653473,0,-8.56e-06,0.0,-0.00035672000000000004,999,17785,1 52588U 22051BE  25210.22804753 -.00000856  00000+0 -35672-4 0  9996,2 52588  53.2174  42.2803 0001312  81.0843 279.0297 15.08847848177859,important
STARLINK-4019,celestrak_active,2025-07-29T17:08:40.674968,52598,U,2022,52,A,2025,210.26622481,53.2166,207.1096,0.0001186,87.1329,272.9799,15.08838263,95.43766454708472,0,-2.2e-07,0.0,0.00016721,999,17785,1 52598U 22052A   25210.26622481 -.00000022  00000+0  16721-4 0  9996,2 52598  53.2166 207.1096 0001186  87.1329 272.9799 15.08838263177852,important
STARLINK-4024,celestrak_active,2025-07-29T17:08:40.674974,52599,U,2022,52,B,2025,210.38629387,53.2164,201.6757,0.0001104,76.7944,283.3171,15.08841945,95.43743165225965,0,1.27e-06,0.0,0.00026061000000000004,999,17794,1 52599U 22052B   25210.38629387  .00000127  00000+0  26061-4 0  9995,2 52599  53.2164 201.6757 0001104  76.7944 283.3171 15.08841945177942,important
STARLINK-4026,celestrak_active,2025-07-29T17:08:40.674980,52600,U,2022,52,C,2025,210.36420303,53.2158,201.6675,0.0001079,71.4897,288.6212,15.08841986,95.43742905892334,0,7.12e-06,0.0,0.00062797,999,17794,1 52600U 22052C   25210.36420303  .00000712  00000+0  62797-4 0  9999,2 52600  53.2158 201.6675 0001079  71.4897 288.6212 15.08841986177946,important
STARLINK-4027,celestrak_active,2025-07-29T17:08:40.674985,52601,U,2022,52,D,2025,210.23908513,53.2159,202.2279,0.0001151,78.8013,281.3108,15.08838772,95.43763235161616,0,1.43e-06,0.0,0.0002704,999,17792,1 52601U 22052D   25210.23908513  .00000143  00000+0  27040-4 0  9990,2 52601  53.2159 202.2279 0001151  78.8013 281.3108 15.08838772177928,important
STARLINK-4012,celestrak_active,2025-07-29T17:08:40.674991,52602,U,2022,52,E,2025,210.36788372,53.2163,201.6501,0.0001038,71.4315,288.679,15.08842134,95.43741969761298,0,2.24e-06,0.0,0.00032142,999,17794,1 52602U 22052E   25210.36788372  .00000224  00000+0  32142-4 0  9993,2 52602  53.2163 201.6501 0001038  71.4315 288.6790 15.08842134177949,important
STARLINK-4016,celestrak_active,2025-07-29T17:08:40.674996,52603,U,2022,52,F,2025,210.28788438,53.2163,202.0219,0.0001019,79.2526,280.858,15.08838979,95.4376192583768,0,3.33e-06,0.0,0.00038975,999,17793,1 52603U 22052F   25210.28788438  .00000333  00000+0  38975-4 0  9999,2 52603  53.2163 202.0219 0001019  79.2526 280.8580 15.08838979177932,important
STARLINK-4013,celestrak_active,2025-07-29T17:08:40.675001,52604,U,2022,52,G,2025,210.36053026,53.2153,201.6826,0.0001257,82.4768,277.6367,15.08832494,95.43802945166424,0,-6.9e-06,0.0,-0.0002525,999,17714,1 52604U 22052G   25210.36053026 -.00000690  00000+0 -25250-4 0  9997,2 52604  53.2153 201.6826 0001257  82.4768 277.6367 15.08832494177145,important
STARLINK-4000,celestrak_active,2025-07-29T17:08:40.675007,52605,U,2022,52,H,2025,210.37387483,53.2156,206.4023,0.0001019,80.2555,279.8552,15.08840936,95.43749547367796,0,1.77e-06,0.0,0.00029176,999,17707,1 52605U 22052H   25210.37387483  .00000177  00000+0  29176-4 0  9995,2 52605  53.2156 206.4023 0001019  80.2555 279.8552 15.08840936177079,important
STARLINK-3928,celestrak_active,2025-07-29T17:08:40.675012,52606,U,2022,52,J,2025,210.29060402,53.2154,201.9969,0.0001224,88.4943,271.6189,15.08838564,95.4376455081115,0,1.77e-06,0.0,0.00029227,999,17713,1 52606U 22052J   25210.29060402  .00000177  00000+0  29227-4 0  9993,2 52606  53.2154 201.9969 0001224  88.4943 271.6189 15.08838564177133,important
STARLINK-3947,celestrak_active,2025-07-29T17:08:40.675018,52607,U,2022,52,K,2025,210.25614172,53.2162,207.1623,0.000117,78.3307,281.7817,15.08841197,95.43747896485888,0,4.96e-06,0.0,0.00049219,999,17704,1 52607U 22052K   25210.25614172  .00000496  00000+0  49219-4 0  9996,2 52607  53.2162 207.1623 0001170  78.3307 281.7817 15.08841197177046,important
STARLINK-3979,celestrak_active,2025-07-29T17:08:40.675024,52608,U,2022,52,L,2025,210.28324837,53.216,202.0326,0.0001298,85.4404,274.6736,15.08835616,95.43783197652195,0,-2.37e-06,0.0,3.2003000000000005e-05,999,17713,1 52608U 22052L   25210.28324837 -.00000237  00000+0  32003-5 0  9994,2 52608  53.2160 202.0326 0001298  85.4404 274.6736 15.08835616177137,important
STARLINK-3997,celestrak_active,2025-07-29T17:08:40.675031,52609,U,2022,52,M,2025,210.27219986,53.2172,202.0348,0.0001172,91.0808,269.0319,15.0883622,95.43779377194431,0,-5.18e-06,0.0,-0.00014456,999,17713,1 52609U 22052M   25210.27219986 -.00000518  00000+0 -14456-4 0  9996,2 52609  53.2172 202.0348 0001172  91.0808 269.0319 15.08836220177134,important
STARLINK-3998,celestrak_active,2025-07-29T17:08:40.675038,52610,U,2022,52,N,2025,210.25886216,53.2163,207.1422,0.0001226,76.2706,283.8423,15.0884118,95.43748004014579,0,1.11e-06,0.0,0.0002503,999,17705,1 52610U 22052N   25210.25886216  .00000111  00000+0  25030-4 0  9999,2 52610  53.2163 207.1422 0001226  76.2706 283.8423 15.08841180177059,important
STARLINK-3980,celestrak_active,2025-07-29T17:08:40.675043,52611,U,2022,52,P,2025,210.3839862,53.2159,206.5783,9.27e-05,72.9673,287.1421,15.08839593,95.43758042144643,0,2.59e-06,0.0,0.00034377,999,17707,1 52611U 22052P   25210.38398620  .00000259  00000+0  34377-4 0  9998,2 52611  53.2159 206.5783 0000927  72.9673 287.1421 15.08839593177073,important
STARLINK-4002,celestrak_active,2025-07-29T17:08:40.675049,52612,U,2022,52,Q,2025,210.27956871,53.2161,202.0492,0.0001145,76.7438,283.3682,15.08834853,95.43788023830864,0,-1.28e-06,0.0,0.00010049999999999999,999,17713,1 52612U 22052Q   25210.27956871 -.00000128  00000+0  10050-4 0  9993,2 52612  53.2161 202.0492 0001145  76.7438 283.3682 15.08834853177137,important
STARLINK-3982,celestrak_active,2025-07-29T17:08:40.675054,52614,U,2022,52,S,2025,210.33200462,53.215,191.8115,0.0001263,81.3164,278.7971,15.0883605,95.43780452488525,0,1.61e-06,0.0,0.00028179,999,17727,1 52614U 22052S   25210.33200462  .00000161  00000+0  28179-4 0  9997,2 52614  53.2150 191.8115 0001263  81.3164 278.7971 15.08836050177278,important
STARLINK-4011,celestrak_active,2025-07-29T17:08:40.675060,52615,U,2022,52,T,2025,210.38030792,53.2153,206.594,0.0001173,86.107,274.0057,15.08838172,95.43767030305487,0,-2.47e-06,0.0,2.5558e-05,999,17706,1 52615U 22052T   25210.38030792 -.00000247  00000+0  25558-5 0  9995,2 52615  53.2153 206.5940 0001173  86.1070 274.0057 15.08838172177069,important
STARLINK-4015,celestrak_active,2025-07-29T17:08:40.675065,52616,U,2022,52,U,2025,210.32464681,53.2166,191.8467,0.0001125,79.9356,280.1763,15.0883838,95.4376571465527,0,3.19e-06,0.0,0.00038147,999,17727,1 52616U 22052U   25210.32464681  .00000319  00000+0  38147-4 0  9994,2 52616  53.2166 191.8467 0001125  79.9356 280.1763 15.08838380177274,important
STARLINK-3996,celestrak_active,2025-07-29T17:08:40.675070,52617,U,2022,52,V,2025,210.25104718,53.2163,192.1766,0.0001214,68.1072,292.0049,15.08838849,95.43762748118371,0,-9.21e-06,0.0,-0.00039759,999,17725,1 52617U 22052V   25210.25104718 -.00000921  00000+0 -39759-4 0  9990,2 52617  53.2163 192.1766 0001214  68.1072 292.0049 15.08838849177259,important
STARLINK-3983,celestrak_active,2025-07-29T17:08:40.675077,52618,U,2022,52,W,2025,210.38721135,53.217,191.5656,0.0001325,81.9127,278.2016,15.08832563,95.4380250872144,0,-5.75e-06,0.0,-0.00018023,999,17727,1 52618U 22052W   25210.38721135 -.00000575  00000+0 -18023-4 0  9999,2 52618  53.2170 191.5656 0001325  81.9127 278.2016 15.08832563177275,important
STARLINK-3741,celestrak_active,2025-07-29T17:08:40.675082,52619,U,2022,52,X,2025,210.18112856,53.2164,192.4828,0.0001321,82.298,277.8162,15.08831648,95.43808296364685,0,9.23e-06,0.0,0.00076097,999,17724,1 52619U 22052X   25210.18112856  .00000923  00000+0  76097-4 0  9992,2 52619  53.2164 192.4828 0001321  82.2980 277.8162 15.08831648177244,important
STARLINK-3975,celestrak_active,2025-07-29T17:08:40.675088,52620,U,2022,52,Y,2025,210.3766587,53.2153,206.6124,9.28e-05,80.1119,279.9978,15.08802895,95.43990171095211,0,-4.911e-05,0.0,-0.0029100000000000003,999,17706,1 52620U 22052Y   25210.37665870 -.00004911  00000+0 -29100-3 0  9999,2 52620  53.2153 206.6124 0000928  80.1119 279.9978 15.08802895177064,important
STARLINK-3984,celestrak_active,2025-07-29T17:08:40.675093,52621,U,2022,52,Z,2025,210.37249219,53.2164,191.6323,0.0001199,84.4529,275.66,15.08813365,95.43923943171063,0,6e-06,0.0,0.0005582,999,17727,1 52621U 22052Z   25210.37249219  .00000600  00000+0  55820-4 0  9993,2 52621  53.2164 191.6323 0001199  84.4529 275.6600 15.08813365177276,important
STARLINK-4008,celestrak_active,2025-07-29T17:08:40.675099,52622,U,2022,52,AA,2025,210.27359894,53.2164,207.077,0.0001171,88.8842,271.2284,15.088321,95.43805437331297,0,-8.06e-06,0.0,-0.00032597,999,17705,1 52622U 22052AA  25210.27359894 -.00000806  00000+0 -32597-4 0  9990,2 52622  53.2164 207.0770 0001171  88.8842 271.2284 15.08832100177055,important
STARLINK-3986,celestrak_active,2025-07-29T17:08:40.675104,52623,U,2022,52,AB,2025,210.36880423,53.2162,191.6489,9.68e-05,83.4569,276.6533,15.088369,95.43775076020476,0,-1.87e-06,0.0,6.3024e-05,999,17727,1 52623U 22052AB  25210.36880423 -.00000187  00000+0  63024-5 0  9999,2 52623  53.2162 191.6489 0000968  83.4569 276.6533 15.08836900177271,important
STARLINK-3988,celestrak_active,2025-07-29T17:08:40.675110,52625,U,2022,52,AD,2025,210.23265543,53.2162,192.2599,0.0001438,89.9946,270.1211,15.08826285,95.4384221905307,0,6.669e-05,0.0,0.0043686,999,17763,1 52625U 22052AD  25210.23265543  .00006669  00000+0  43686-3 0  9997,2 52625  53.2162 192.2599 0001438  89.9946 270.1211 15.08826285177632,important
